APRIZESAT 2             
1 28366U 04025A   23319.47019969  .00000322  00000+0  11498-3 0  9991
2 28366  98.0960 165.3410 0106184 220.9803 138.3370 14.37121875 15913
SAUDICOMSAT 1           
1 28369U 04025D   23318.49468720  .00000790  00000+0  19934-3 0  9990
2 28369  98.5127 290.7808 0033973  40.2361 320.1340 14.53537360 26645
SAUDICOMSAT 2           
1 28370U 04025E   23318.49181673  .00000586  00000+0  16635-3 0  9999
2 28370  98.6047 291.0839 0055876 241.8807 117.6732 14.48348667 23125
APRIZESAT 1             
1 28372U 04025G   23319.47690491  .00000407  00000+0  11510-3 0  9992
2 28372  98.5662 291.7078 0046293 145.6523 214.7679 14.50352479 24938
NANOSAT-1               
1 28493U 04049B   23319.27179587  .00001601  00000+0  24275-3 0  9997
2 28493  98.1341  66.3565 0005465  86.4357 273.7477 14.75533498 15897
SAUDICOMSAT 7           
1 31119U 07012C   23318.58976084  .00001183  00000+0  23457-3 0  9995
2 31119  98.2486 266.8262 0057227 279.1758  80.2973 14.63163367884007
SAUDICOMSAT 6           
1 31121U 07012E   23319.41265387  .00001170  00000+0  24538-3 0  9995
2 31121  98.2834 262.6545 0075835  28.7963 331.7390 14.59828253882266
SAUDICOMSAT 5           
1 31124U 07012H   23319.40406564  .00001003  00000+0  19356-3 0  9998
2 31124  98.2191 268.7845 0049284 215.6967 144.0937 14.64968551885161
SAUDICOMSAT 3           
1 31125U 07012J   23318.59248326  .00001223  00000+0  22454-3 0  9995
2 31125  98.1856 268.9109 0042388 157.7585 202.5470 14.66954691886068
SAUDICOMSAT 4           
1 31127U 07012L   23318.43884223  .00001326  00000+0  26866-3 0  9997
2 31127  98.2695 265.1741 0066007 333.3902  26.3916 14.61633941883074
APRIZESAT 4             
1 35684U 09041D   23318.91141028  .00001052  00000+0  14162-3 0  9997
2 35684  98.2681 354.4760 0046771 135.2208 225.2794 14.80752899771310
APRIZESAT 3             
1 35686U 09041F   23319.27893957  .00001636  00000+0  16920-3 0  9996
2 35686  98.1061  62.6941 0068322 298.7845  60.6522 14.89929345775405
AISSAT 1                
1 36797U 10035C   23319.16560146  .00002184  00000+0  23484-3 0  9996
2 36797  98.2086 167.6319 0009324 293.6515  66.3722 14.89622160723275
S-NET D                 
1 43186U 18014G   23319.30212497  .00003785  00000+0  29388-3 0  9997
2 43186  97.6017 220.1537 0012938  27.1890 333.0010 15.01869479316228
S-NET B                 
1 43187U 18014H   23319.30362071  .00003635  00000+0  28236-3 0  9997
2 43187  97.6033 220.0885 0013477  23.9668 336.2181 15.01870431316222
S-NET A                 
1 43188U 18014J   23319.30345694  .00003704  00000+0  28760-3 0  9999
2 43188  97.6035 220.1852 0013419  24.3277 335.8579 15.01874144316228
S-NET C                 
1 43189U 18014K   23319.23954501  .00003745  00000+0  29063-3 0  9997
2 43189  97.6066 220.0249 0014614  18.4879 341.6874 15.01879981314766
SALSAT                  
1 46495U 20068K   23319.42004794  .00006600  00000+0  41344-3 0  9992
2 46495  97.7889 269.3365 0014026 333.1224  26.9276 15.09637450171879
